CTC2_L_00539001-01
1 57530U 22062OU  26070.40850694  .00000000  00000+0  00000-0 0  9992
2 57530  97.4000   0.0000 0000000   0.0000   0.0000 14.95764766    18
CTC2_L_00539001-02
1 57531U 23051LK  26070.40850694  .00000000  00000+0  00000-0 0  9992
2 57531  97.4000   0.0000 0000000   0.0000 180.0000 14.95764766    18
CTC2_L_00539002-01
1 57532U 25800HU  26070.40850694  .00000000  00000+0  00000-0 0  9997
2 57532  97.4000  12.0000 0000000   0.0000  24.0000 14.95764766    19
CTC2_L_00539002-02
1 57533U 22467JA  26070.40850694  .00000000  00000+0  00000-0 0  9994
2 57533  97.4000  12.0000 0000000   0.0000 204.0000 14.95764766    10
CTC2_L_00539003-01
1 57534U 22956MR  26070.40850694  .00000000  00000+0  00000-0 0  9998
2 57534  97.4000  24.0000 0000000   0.0000  48.0000 14.95764766    10
CTC2_L_00539003-02
1 57535U 26515M   26070.40850694  .00000000  00000+0  00000-0 0  9994
2 57535  97.4000  24.0000 0000000   0.0000 228.0000 14.95764766    11
CTC2_L_00539004-01
1 57536U 25293FZ  26070.40850694  .00000000  00000+0  00000-0 0  9997
2 57536  97.4000  36.0000 0000000   0.0000  72.0000 14.95764766    12
CTC2_L_00539004-02
1 57537U 23047SO  26070.40850694  .00000000  00000+0  00000-0 0  9993
2 57537  97.4000  36.0000 0000000   0.0000 252.0000 14.95764766    13
CTC2_L_00539005-01
1 57538U 22203XC  26070.40850694  .00000000  00000+0  00000-0 0  9997
2 57538  97.4000  48.0000 0000000   0.0000  96.0000 14.95764766    13
CTC2_L_00539005-02
1 57539U 26435NH  26070.40850694  .00000000  00000+0  00000-0 0  9999
2 57539  97.4000  48.0000 0000000   0.0000 276.0000 14.95764766    14
CTC2_L_00539006-01
1 57540U 22766FH  26070.40850694  .00000000  00000+0  00000-0 0  9994
2 57540  97.4000  60.0000 0000000   0.0000 120.0000 14.95764766    18
CTC2_L_00539006-02
1 57541U 25357VX  26070.40850694  .00000000  00000+0  00000-0 0  9994
2 57541  97.4000  60.0000 0000000   0.0000 300.0000 14.95764766    19
CTC2_L_00539007-01
1 57542U 24935XM  26070.40850694  .00000000  00000+0  00000-0 0  9996
2 57542  97.4000  72.0000 0000000   0.0000 144.0000 14.95764766    19
CTC2_L_00539007-02
1 57543U 26043OB  26070.40850694  .00000000  00000+0  00000-0 0  9999
2 57543  97.4000  72.0000 0000000   0.0000 324.0000 14.95764766    10
CTC2_L_00539008-01
1 57544U 25947GX  26070.40850694  .00000000  00000+0  00000-0 0  9992
2 57544  97.4000  84.0000 0000000   0.0000 168.0000 14.95764766    10
CTC2_L_00539008-02
1 57545U 26929RA  26070.40850694  .00000000  00000+0  00000-0 0  9994
2 57545  97.4000  84.0000 0000000   0.0000 348.0000 14.95764766    11
CTC2_L_00539009-01
1 57546U 24237NQ  26070.40850694  .00000000  00000+0  00000-0 0  9995
2 57546  97.4000  96.0000 0000000   0.0000 192.0000 14.95764766    12
CTC2_L_00539009-02
1 57547U 26891QS  26070.40850694  .00000000  00000+0  00000-0 0  9994
2 57547  97.4000  96.0000 0000000   0.0000  12.0000 14.95764766    14
CTC2_L_00539010-01
1 57548U 22056NI  26070.40850694  .00000000  00000+0  00000-0 0  9994
2 57548  97.4000 108.0000 0000000   0.0000 216.0000 14.95764766    15
CTC2_L_00539010-02
1 57549U 25148UA  26070.40850694  .00000000  00000+0  00000-0 0  9990
2 57549  97.4000 108.0000 0000000   0.0000  36.0000 14.95764766    16
CTC2_L_00539011-01
1 57550U 25506K   26070.40850694  .00000000  00000+0  00000-0 0  9990
2 57550  97.4000 120.0000 0000000   0.0000 240.0000 14.95764766    19
CTC2_L_00539011-02
1 57551U 25771YQ  26070.40850694  .00000000  00000+0  00000-0 0  9995
2 57551  97.4000 120.0000 0000000   0.0000  60.0000 14.95764766    10
CTC2_L_00539012-01
1 57552U 26887WU  26070.40850694  .00000000  00000+0  00000-0 0  9995
2 57552  97.4000 132.0000 0000000   0.0000 264.0000 14.95764766    10
CTC2_L_00539012-02
1 57553U 24641VE  26070.40850694  .00000000  00000+0  00000-0 0  9992
2 57553  97.4000 132.0000 0000000   0.0000  84.0000 14.95764766    11
CTC2_L_00539013-01
1 57554U 22364FR  26070.40850694  .00000000  00000+0  00000-0 0  9993
2 57554  97.4000 144.0000 0000000   0.0000 288.0000 14.95764766    11
CTC2_L_00539013-02
1 57555U 26873MZ  26070.40850694  .00000000  00000+0  00000-0 0  9993
2 57555  97.4000 144.0000 0000000   0.0000 108.0000 14.95764766    13
CTC2_L_00539014-01
1 57556U 23707LX  26070.40850694  .00000000  00000+0  00000-0 0  9997
2 57556  97.4000 156.0000 0000000   0.0000 312.0000 14.95764766    14
CTC2_L_00539014-02
1 57557U 24330VP  26070.40850694  .00000000  00000+0  00000-0 0  9991
2 57557  97.4000 156.0000 0000000   0.0000 132.0000 14.95764766    15
CTC2_L_00539015-01
1 57558U 24774YA  26070.40850694  .00000000  00000+0  00000-0 0  9994
2 57558  97.4000 168.0000 0000000   0.0000 336.0000 14.95764766    15
CTC2_L_00539015-02
1 57559U 26795HP  26070.40850694  .00000000  00000+0  00000-0 0  9990
2 57559  97.4000 168.0000 0000000   0.0000 156.0000 14.95764766    16
CTC2_L_00539016-01
1 57560U 23636ET  26070.40850694  .00000000  00000+0  00000-0 0  9993
2 57560  97.4000 180.0000 0000000   0.0000   0.0000 14.95764766    10
CTC2_L_00539016-02
1 57561U 23518VM  26070.40850694  .00000000  00000+0  00000-0 0  9993
2 57561  97.4000 180.0000 0000000   0.0000 180.0000 14.95764766    10
CTC2_L_00539017-01
1 57562U 24180GP  26070.40850694  .00000000  00000+0  00000-0 0  9990
2 57562  97.4000 192.0000 0000000   0.0000  24.0000 14.95764766    11
CTC2_L_00539017-02
1 57563U 25631HJ  26070.40850694  .00000000  00000+0  00000-0 0  9993
2 57563  97.4000 192.0000 0000000   0.0000 204.0000 14.95764766    12
CTC2_L_00539018-01
1 57564U 24328MI  26070.40850694  .00000000  00000+0  00000-0 0  9996
2 57564  97.4000 204.0000 0000000   0.0000  48.0000 14.95764766    13
CTC2_L_00539018-02
1 57565U 24145JC  26070.40850694  .00000000  00000+0  00000-0 0  9994
2 57565  97.4000 204.0000 0000000   0.0000 228.0000 14.95764766    14
CTC2_L_00539019-01
1 57566U 24090XU  26070.40850694  .00000000  00000+0  00000-0 0  9994
2 57566  97.4000 216.0000 0000000   0.0000  72.0000 14.95764766    15
CTC2_L_00539019-02
1 57567U 23838DV  26070.40850694  .00000000  00000+0  00000-0 0  9994
2 57567  97.4000 216.0000 0000000   0.0000 252.0000 14.95764766    16
CTC2_L_00539020-01
1 57568U 22648FU  26070.40850694  .00000000  00000+0  00000-0 0  9993
2 57568  97.4000 228.0000 0000000   0.0000  96.0000 14.95764766    16
CTC2_L_00539020-02
1 57569U 26932DV  26070.40850694  .00000000  00000+0  00000-0 0  9994
2 57569  97.4000 228.0000 0000000   0.0000 276.0000 14.95764766    17
CTC2_L_00539021-01
1 57570U 24986WD  26070.40850694  .00000000  00000+0  00000-0 0  9993
2 57570  97.4000 240.0000 0000000   0.0000 120.0000 14.95764766    11
CTC2_L_00539021-02
1 57571U 24289SM  26070.40850694  .00000000  00000+0  00000-0 0  9990
2 57571  97.4000 240.0000 0000000   0.0000 300.0000 14.95764766    12
CTC2_L_00539022-01
1 57572U 23254PM  26070.40850694  .00000000  00000+0  00000-0 0  9992
2 57572  97.4000 252.0000 0000000   0.0000 144.0000 14.95764766    12
CTC2_L_00539022-02
1 57573U 26642QO  26070.40850694  .00000000  00000+0  00000-0 0  9997
2 57573  97.4000 252.0000 0000000   0.0000 324.0000 14.95764766    13
CTC2_L_00539023-01
1 57574U 26580IP  26070.40850694  .00000000  00000+0  00000-0 0  9999
2 57574  97.4000 264.0000 0000000   0.0000 168.0000 14.95764766    13
CTC2_L_00539023-02
1 57575U 26859DB  26070.40850694  .00000000  00000+0  00000-0 0  9999
2 57575  97.4000 264.0000 0000000   0.0000 348.0000 14.95764766    14
CTC2_L_00539024-01
1 57576U 23446PI  26070.40850694  .00000000  00000+0  00000-0 0  9999
2 57576  97.4000 276.0000 0000000   0.0000 192.0000 14.95764766    15
CTC2_L_00539024-02
1 57577U 24648CS  26070.40850694  .00000000  00000+0  00000-0 0  9995
2 57577  97.4000 276.0000 0000000   0.0000  12.0000 14.95764766    17
CTC2_L_00539025-01
1 57578U 23584RZ  26070.40850694  .00000000  00000+0  00000-0 0  9994
2 57578  97.4000 288.0000 0000000   0.0000 216.0000 14.95764766    17
CTC2_L_00539025-02
1 57579U 22287HD  26070.40850694  .00000000  00000+0  00000-0 0  9994
2 57579  97.4000 288.0000 0000000   0.0000  36.0000 14.95764766    18
CTC2_L_00539026-01
1 57580U 23363KF  26070.40850694  .00000000  00000+0  00000-0 0  9992
2 57580  97.4000 300.0000 0000000   0.0000 240.0000 14.95764766    12
CTC2_L_00539026-02
1 57581U 23982MD  26070.40850694  .00000000  00000+0  00000-0 0  9990
2 57581  97.4000 300.0000 0000000   0.0000  60.0000 14.95764766    13
CTC2_L_00539027-01
1 57582U 22797ZV  26070.40850694  .00000000  00000+0  00000-0 0  9994
2 57582  97.4000 312.0000 0000000   0.0000 264.0000 14.95764766    13
CTC2_L_00539027-02
1 57583U 26632GR  26070.40850694  .00000000  00000+0  00000-0 0  9997
2 57583  97.4000 312.0000 0000000   0.0000  84.0000 14.95764766    14
CTC2_L_00539028-01
1 57584U 23501MH  26070.40850694  .00000000  00000+0  00000-0 0  9990
2 57584  97.4000 324.0000 0000000   0.0000 288.0000 14.95764766    14
CTC2_L_00539028-02
1 57585U 26675ZC  26070.40850694  .00000000  00000+0  00000-0 0  9996
2 57585  97.4000 324.0000 0000000   0.0000 108.0000 14.95764766    16
CTC2_L_00539029-01
1 57586U 25951O   26070.40850694  .00000000  00000+0  00000-0 0  9993
2 57586  97.4000 336.0000 0000000   0.0000 312.0000 14.95764766    17
CTC2_L_00539029-02
1 57587U 26811WP  26070.40850694  .00000000  00000+0  00000-0 0  9990
2 57587  97.4000 336.0000 0000000   0.0000 132.0000 14.95764766    18
CTC2_L_00539030-01
1 57588U 24269AX  26070.40850694  .00000000  00000+0  00000-0 0  9996
2 57588  97.4000 348.0000 0000000   0.0000 336.0000 14.95764766    18
CTC2_L_00539030-02
1 57589U 23401DC  26070.40850694  .00000000  00000+0  00000-0 0  9994
2 57589  97.4000 348.0000 0000000   0.0000 156.0000 14.95764766    19
